1 29601U 06052A   21002.58959254 -.00000015  00000-0  00000-0 0  9990
2 29601  55.8913 293.0221 0079589  66.2992 294.5709  2.00574800103468
1 29601U 06052A   21004.08525271 -.00000022  00000-0  00000-0 0  9993
2 29601  55.8901 292.9630 0079643  66.3096 294.5611  2.00574855103499
1 29601U 06052A   21005.08235693 -.00000030  00000-0  00000-0 0  9999
2 29601  55.8895 292.9236 0079703  66.3186 294.5506  2.00574893103518
1 29601U 06052A   21006.07945877 -.00000036  00000-0  00000-0 0  9997
2 29601  55.8887 292.8842 0079743  66.3284 294.5381  2.00574942103532
1 29601U 06052A   21007.07656083 -.00000041  00000-0  00000-0 0  9992
2 29601  55.8879 292.8448 0079798  66.3411 294.5229  2.00574992103555
1 29601U 06052A   21007.57511153 -.00000043  00000-0  00000-0 0  9997
2 29601  55.8875 292.8251 0079793  66.3473 294.5154  2.00575016103562
1 29601U 06052A   21011.56353972 -.00000033  00000-0  00000+0 0  9992
2 29601  55.8843 292.6674 0079970  66.4045 294.4661  2.00575302103691
1 29601U 06052A   21011.56353972 -.00000033  00000-0  00000-0 0  9993
2 29601  55.8843 292.6674 0079970  66.4045 294.4661  2.00575302103646
1 29601U 06052A   21012.06209498 -.00000031  00000-0  00000-0 0  9990
2 29601  55.8839 292.6477 0079996  66.4148 294.4584  2.00575345103656
1 29601U 06052A   21013.05920526 -.00000029  00000-0  00000-0 0  9999
2 29601  55.8832 292.6083 0080037  66.4329 294.4454  2.00575432103676
1 29601U 06052A   21014.05631447 -.00000031  00000-0  00000-0 0  9994
2 29601  55.8824 292.5689 0080078  66.4485 294.4343  2.00575515103697
1 29601U 06052A   21015.05342114 -.00000035  00000-0  00000-0 0  9999
2 29601  55.8815 292.5295 0080104  66.4649 294.4210  2.00575605103718
1 29601U 06052A   21016.05052553 -.00000040  00000-0  00000-0 0  9991
2 29601  55.8808 292.4901 0080135  66.4795 294.4082  2.00575700103734
1 29601U 06052A   21017.04762814 -.00000047  00000-0  00000-0 0  9996
2 29601  55.8800 292.4506 0080174  66.4986 294.3899  2.00575786103753
1 29601U 06052A   21018.04472905 -.00000052  00000-0  00000-0 0  9992
2 29601  55.8792 292.4112 0080202  66.5130 294.3750  2.00575856103776
1 29601U 06052A   21020.53747949 -.00000053  00000-0  00000+0 0  9992
2 29601  55.8773 292.3127 0080316  66.5699 294.3169  2.00576059103877
1 29601U 06052A   21020.53747949 -.00000053  00000-0  00000-0 0  9993
2 29601  55.8773 292.3127 0080316  66.5699 294.3169  2.00576059103822
1 29601U 06052A   21021.03602977 -.00000051  00000-0  00000-0 0  9998
2 29601  55.8769 292.2929 0080337  66.5809 294.3060  2.00576094103832
1 29601U 06052A   21021.53458033 -.00000047  00000-0  00000-0 0  9990
2 29601  55.8765 292.2732 0080358  66.5911 294.2962  2.00576127103845
1 29601U 06052A   21022.03313139 -.00000043  00000-0  00000-0 0  9999
2 29601  55.8761 292.2536 0080394  66.6001 294.2879  2.00576162103851
1 29601U 06052A   21023.03023342 -.00000034  00000-0  00000-0 0  9994
2 29601  55.8753 292.2142 0080410  66.6122 294.2776  2.00576214103874
1 29601U 06052A   21024.02733795 -.00000023  00000-0  00000-0 0  9992
2 29601  55.8746 292.1747 0080475  66.6340 294.2593  2.00576276103896
1 29601U 06052A   21025.02444339 -.00000013  00000-0  00000-0 0  9995
2 29601  55.8738 292.1353 0080530  66.6535 294.2442  2.00576324103918
1 29601U 06052A   21027.01865487  .00000003  00000-0  00000+0 0  9994
2 29601  55.8722 292.0564 0080619  66.6995 294.2087  2.00576413104007
1 29601U 06052A   21027.01865487  .00000003  00000-0  00000-0 0  9995
2 29601  55.8722 292.0564 0080619  66.6995 294.2087  2.00576413103950
1 29601U 06052A   21028.01575857  .00000008  00000-0  00000-0 0  9990
2 29601  55.8715 292.0169 0080619  66.7115 294.2010  2.00576457103974
1 29601U 06052A   21029.51141161  .00000008  00000-0  00000-0 0  9993
2 29601  55.8703 291.9578 0080670  66.7381 294.1794  2.00576527104006
1 29601U 06052A   21031.00705821  .00000003  00000-0  00000-0 0  9994
2 29601  55.8692 291.8986 0080701  66.7580 294.1599  2.00576585104031
1 29601U 06052A   21032.00415305 -.00000003  00000-0  00000-0 0  9991
2 29601  55.8684 291.8591 0080761  66.7816 294.1348  2.00576630104057
1 29601U 06052A   21033.99833689 -.00000015  00000-0  00000-0 0  9992
2 29601  55.8669 291.7802 0080851  66.8195 294.0903  2.00576730104096
1 29601U 06052A   21034.99542678 -.00000018  00000-0  00000-0 0  9991
2 29601  55.8665 291.7407 0080836  66.8285 294.0777  2.00576806104112
1 29601U 06052A   21035.49397404 -.00000018  00000-0  00000-0 0  9992
2 29601  55.8662 291.7210 0080887  66.8445 294.0611  2.00576833104123
1 29601U 06052A   21036.98961720 -.00000015  00000-0  00000-0 0  9992
2 29601  55.8652 291.6618 0080950  66.8796 294.0259  2.00576940104153
1 29601U 06052A   21037.98671532 -.00000011  00000-0  00000-0 0  9998
2 29601  55.8644 291.6223 0080997  66.9019 294.0060  2.00577022104170
1 29601U 06052A   21038.98381454 -.00000006  00000-0  00000-0 0  9994
2 29601  55.8637 291.5829 0081011  66.9204 293.9908  2.00577088104190
1 29601U 06052A   21039.48236437 -.00000005  00000-0  00000-0 0  9999
2 29601  55.8633 291.5631 0081033  66.9299 293.9833  2.00577151104205
1 29601U 06052A   21039.98091392 -.00000004  00000-0  00000-0 0  9992
2 29601  55.8629 291.5434 0081036  66.9381 293.9769  2.00577192104210
1 29601U 06052A   21041.97511040 -.00000007  00000-0  00000-0 0  9994
2 29601  55.8615 291.4645 0081114  66.9891 293.9321  2.00577358104253
1 29601U 06052A   21042.47365891 -.00000010  00000-0  00000-0 0  9995
2 29601  55.8611 291.4447 0081169  67.0136 293.9089  2.00577401104264
1 29601U 06052A   21042.97220515 -.00000013  00000-0  00000-0 0  9996
2 29601  55.8607 291.4250 0081162  67.0153 293.9072  2.00577447104276
1 29601U 06052A   21043.96929746 -.00000020  00000-0  00000-0 0  9996
2 29601  55.8601 291.3855 0081194  67.0368 293.8854  2.00577544104290
1 29601U 06052A   21046.46201999 -.00000031  00000-0  00000+0 0  9998
2 29601  55.8580 291.2868 0081190  67.1359 293.7812  2.00577763104393
1 29601U 06052A   21046.46201999 -.00000031  00000-0  00000-0 0  9999
2 29601  55.8580 291.2868 0081190  67.1359 293.7812  2.00577763104348
